satname,norad_id,inclination_deg,eccentricity,mean_motion_rev_per_day,perigee_km,apogee_km,l1,l2
STARLINK-1446,45663,53.0293,0.0007372,15.28723677,474.57110749305866,484.68219421988215,1 45663U 20035G   25258.30462106  .00121050  00000+0  42175-2 0  9997,2 45663  53.0293 105.0053 0007372 105.3610 254.8204 15.28723677292700
STARLINK-1448,45665,53.0534,0.0001451,15.06402796,546.198121781882,548.207855446577,1 45665U 20035J   25258.07363497  .00002761  00000+0  20413-3 0  9995,2 45665  53.0534 134.9876 0001451  91.9873 268.1282 15.06402796292253
STARLINK-1451,45668,53.0521,0.0001369,15.06397603,546.2708231844745,548.1669856311009,1 45668U 20035M   25258.07736344  .00002820  00000+0  20812-3 0  9992,2 45668  53.0521 135.2905 0001369  91.3059 268.8087 15.06397603292268
STARLINK-1452,45669,53.0503,0.0004487,15.21124059,499.3615266697034,505.5361644074892,1 45669U 20035N   25258.32156400  .00027041  00000+0  12096-2 0  9996,2 45669  53.0503 120.8564 0004487 168.7280 191.3817 15.21124059292484
STARLINK-1453,45670,53.0548,0.0001258,15.06396549,546.35092459728,548.0933449555887,1 45670U 20035P   25258.28650358  .00001688  00000+0  13222-3 0  9996,2 45670  53.0548 104.0373 0001258  56.8417 303.2693 15.06396549292607
STARLINK-1454,45671,53.055,0.0001536,15.06406969,546.1264687815683,548.2539292971132,1 45671U 20035Q   25258.36481565  .00001410  00000+0  11348-3 0  9998,2 45671  53.0550 133.6843 0001536  95.7106 264.4058 15.06406969292293
STARLINK-1456,45673,53.0551,0.0001593,15.0640401,546.0960618256113,548.3024739605617,1 45673U 20035S   25258.37956391  .00002882  00000+0  21230-3 0  9990,2 45673  53.0551 133.6187 0001593  91.6937 268.4235 15.06404010292316
STARLINK-1457,45674,53.0537,0.0001253,15.06403821,546.332102441409,548.0675918553052,1 45674U 20035T   25258.38693527  .00003378  00000+0  24555-3 0  9995,2 45674  53.0537 133.5849 0001253  85.9663 274.1469 15.06403821292288
STARLINK-1458,45675,53.0544,0.0001228,15.06402338,546.3539603913032,548.0548242372552,1 45675U 20035U   25258.37587735  .00002363  00000+0  17747-3 0  9996,2 45675  53.0544 133.6333 0001228  90.5683 269.5447 15.06402338292277
STARLINK-1460,45676,53.0529,0.0001464,15.06420821,546.1338836203377,548.1616069937627,1 45676U 20035V   25258.34639871  .00005876  00000+0  41278-3 0  9991,2 45676  53.0529 133.7653 0001464  97.7612 262.3544 15.06420821292265
STARLINK-1392,45677,53.0567,0.0001607,15.06410555,546.0663102576455,548.2921068870801,1 45677U 20035W   25258.35743654  .00001744  00000+0  13593-3 0  9997,2 45677  53.0567 133.7190 0001607  98.0525 262.0646 15.06410555292308
STARLINK-1394,45679,53.0539,0.0001773,15.06415409,545.9364760489834,548.3921879013023,1 45679U 20035Y   25257.95659038  .00004711  00000+0  33482-3 0  9992,2 45679  53.0539 125.5156 0001773  82.3796 277.7395 15.06415409292385
STARLINK-1402,45685,53.0551,0.0001471,15.06400198,546.1922324132556,548.2296697804686,1 45685U 20035AE  25258.31911238  .00000862  00000+0  76735-4 0  9995,2 45685  53.0551 118.3094 0001471  94.0450 266.0707 15.06400198292522
STARLINK-1404,45686,53.0538,0.0001403,15.06406257,546.2207574886461,548.1640049130101,1 45686U 20035AF  25258.04874780  .00002044  00000+0  15602-3 0  9995,2 45686  53.0538 125.1038 0001403  91.8380 268.2770 15.06406257292407
STARLINK-1413,45689,53.055,0.0001319,15.064122,546.2607184048311,548.0876154906719,1 45689U 20035AJ  25258.33255808  .00003219  00000+0  23482-3 0  9994,2 45689  53.0550 123.8261 0001319  97.3778 262.7361 15.06412200292359
STARLINK-1417,45693,53.0543,0.000138,15.06402865,546.247080250585,548.1584740290746,1 45693U 20035AN  25258.32887458  .00001405  00000+0  11322-3 0  9995,2 45693  53.0543 123.8465 0001380  90.0597 270.0550 15.06402865292436
STARLINK-1420,45695,53.0542,0.0001429,15.06396624,546.2322711238576,548.2115386988808,1 45695U 20035AQ  25257.86535128  .00000989  00000+0  85298-4 0  9999,2 45695  53.0542 105.9156 0001429  90.8895 269.2258 15.06396624292652
STARLINK-1422,45696,53.053,0.0001369,15.06401296,546.2595062139762,548.1556655615923,1 45696U 20035AR  25258.00821956  .00002490  00000+0  18600-3 0  9995,2 45696  53.0530 125.2858 0001369  90.6057 269.5089 15.06401296292382
STARLINK-1351,45697,53.0541,0.0001349,15.0639687,546.2869201395206,548.1553817686481,1 45697U 20035AS  25257.98424890  .00000247  00000+0  35481-4 0  9993,2 45697  53.0541 105.3895 0001349  93.8387 266.2756 15.06396870292672
STARLINK-1398,45699,53.0544,0.000757,15.41811224,435.60189617516244,445.92571199254417,1 45699U 20035AU  25258.22622626  .00306829  00000+0  68573-2 0  9991,2 45699  53.0544  76.9203 0007570 122.2253 237.9487 15.41811224293091
STARLINK-1400,45700,53.0547,0.0001374,15.06395694,546.2732105343666,548.1762999447074,1 45700U 20035AV  25257.95844714  .00000557  00000+0  56313-4 0  9997,2 45700  53.0547 105.5094 0001374  94.3487 265.7659 15.06395694292669
STARLINK-1403,45701,53.0546,0.0001366,15.06398067,546.2714788889252,548.163485733493,1 45701U 20035AW  25257.98792920  .00000227  00000+0  34159-4 0  9990,2 45701  53.0546 105.3736 0001366  93.6440 266.4706 15.06398067292660
STARLINK-1407,45703,53.043,0.0007139,15.33570511,460.2843308143538,470.05520421701385,1 45703U 20035AY  25258.19341149  .00198337  00000+0  58767-2 0  9998,2 45703  53.0430  73.1409 0007139 198.9541 161.1195 15.33570511293141
STARLINK-1411,45706,53.0557,0.0001015,15.26819126,484.63173088231906,486.02501435296017,1 45706U 20035BB  25258.29791695  .00192537  00000+0  70362-2 0  9998,2 45706  53.0557  98.6377 0001015 105.4649 254.6462 15.26819126292783
STARLINK-1423,45710,53.055,0.0001448,15.06396176,546.2204858040623,548.226070140563,1 45710U 20035BF  25258.27912112  .00000589  00000+0  58447-4 0  9997,2 45710  53.0550 104.0703 0001448  95.6960 264.4194 15.06396176292719
STARLINK-1433,45711,53.0548,0.0001387,15.06427082,546.1680224195707,548.0890910850139,1 45711U 20035BG  25257.86258090  .00004463  00000+0  31806-3 0  9994,2 45711  53.0548 105.9383 0001387  94.8484 265.2663 15.06427082292648
STARLINK-1434,45712,53.0511,0.0004437,15.11012979,530.0429024739851,536.1759425493219,1 45712U 20035BH  25258.30054929  .00051438  00000+0  30389-2 0  9998,2 45712  53.0511 102.3423 0004437  93.9558 266.1941 15.11012979292747
STARLINK-1465,45731,53.054,6.25e-05,15.06410204,546.7474519941861,547.6131166547266,1 45731U 20038B   25258.49290269  .00001539  00000+0  12216-3 0  9998,2 45731  53.0540 303.1112 0000625  61.0929 299.0123 15.06410204289783
